NOAA 1 [-]              
1 04793U 70106A   17227.27723212 -.00000046  00000-0 -53584-5 0  9994
2 04793 101.7975 292.0722 0032257 143.6129 232.2007 12.53981859136562
NOAA 2 [-]              
1 06235U 72082A   17227.49114399 -.00000009  00000-0  22566-3 0  9998
2 06235 101.6869 191.6373 0003453 231.0109 237.2791 12.53096419 50871
NOAA 3 [-]              
1 06920U 73086A   17227.46050624 -.00000048  00000-0 -24643-4 0  9994
2 06920 101.9452 195.9542 0006585 330.4253 140.9909 12.40351975981894
NOAA 4 [-]              
1 07529U 74089A   17227.49025874 -.00000009  00000-0  22258-3 0  9991
2 07529 101.6453 195.1529 0008407 266.5528 203.5085 12.53113022955462
NOAA 5 [-]              
1 09057U 76077A   17227.49537140 -.00000055  00000-0 -91769-4 0  9998
2 09057 101.8340 207.5752 0009613 175.5549 296.8896 12.37761888855347
TIROS N [P]             
1 11060U 78096A   17227.24583495 -.00000011  00000-0  16482-4 0  9995
2 11060  98.8894 277.3476 0010928 167.0835 193.0622 14.18165039221356
NOAA 6 [P]              
1 11416U 79057A   17227.44743124  .00000038  00000-0  29808-4 0  9991
2 11416  98.5828 214.8402 0011582  74.9324 285.3141 14.33429599988561
NOAA 7 [-]              
1 12553U 81059A   17227.48194837 -.00000019  00000-0  13327-4 0  9993
2 12553  99.0556 210.2884 0012543  88.8699  21.2100 14.17221178867731
NOAA 8 [-]              
1 13923U 83022A   17227.47037736  .00000024  00000-0  26528-4 0  9992
2 13923  98.5163 216.1778 0015163 353.8274   6.2719 14.28598417790350
NOAA 9 [P]              
1 15427U 84123A   17227.48598075  .00000010  00000-0  27356-4 0  9990
2 15427  98.8059 170.7758 0015320 147.0631 323.8812 14.16006294686761
NOAA 10 [-]             
1 16969U 86073A   17227.53119545  .00000001  00000-0  17539-4 0  9997
2 16969  98.4615 234.3431 0013401 100.5776  12.8605 14.28015212608902
NOAA 11 [-]             
1 19531U 88089A   17227.29825194 -.00000054  00000-0 -61731-5 0  9995
2 19531  98.5463 283.3313 0010419 224.2098 135.8244 14.15211527491113
NOAA 12 [-]             
1 21263U 91032A   17227.45411900 -.00000012  00000-0  12851-4 0  9997
2 21263  98.5611 250.1359 0014875 107.5887 252.6919 14.25846183365170
NOAA 13 [-]             
1 22739U 93050A   17226.96652360 -.00000040  00000-0  96172-6 0  9991
2 22739  98.5549 273.1092 0009691  13.7006 346.4428 14.12686900237731
NOAA 14 [-]             
1 23455U 94089A   17227.47126681 -.00000034  00000-0  44840-5 0  9996
2 23455  98.6834 300.7765 0009218 353.6399   6.4656 14.14101195167216
NOAA 15 [B]             
1 25338U 98030A   17227.51327220  .00000029  00000-0  31000-4 0  9991
2 25338  98.7817 238.5411 0011279  39.8201 320.3804 14.25810897  1466
NOAA 16 [-]             
1 26536U 00055A   17227.40349295 -.00000018  00000-0  13902-4 0  9996
2 26536  98.8524 299.5347 0011170 149.1690 211.0140 14.13182356871277
NOAA 17 [-]             
1 27453U 02032A   17227.45507107  .00000008  00000-0  21123-4 0  9997
2 27453  98.4395 189.6813 0012410  31.5855 328.6068 14.24991142787206
NOAA 18 [B]             
1 28654U 05018A   17227.49209278  .00000019  00000-0  35549-4 0  9999
2 28654  99.1801 251.1481 0013249 265.1532  94.8126 14.12344983630626
NOAA 19 [+]             
1 33591U 09005A   17227.50036174  .00000089  00000-0  73360-4 0  9990
2 33591  99.0979 195.1849 0015020 104.1776 256.1064 14.12202309439034
NPP [+]                 
1 37849U 11061A   17227.23660571  .00000000  00000-0  20957-4 0  9996
2 37849  98.7372 165.1597 0001136  53.9545  81.9464 14.19535166300461
